*******************************************************************************
Ephemeris / WWW_USER Mon Jul 15 19:15:34 2024 Pasadena, USA      / Horizons    
*******************************************************************************
Target body name: (2018 WV1)                      {source: JPL#17}
Center body name: Earth (399)                     {source: DE441}
Center-site name: Gemini South Obs., Cerro Pachon
*******************************************************************************
Start time      : A.D. 2018-Dec-04 23:42:00.0000 UT      
Stop  time      : A.D. 2018-Dec-05 09:24:00.0000 UT      
Step-size       : 1 minutes
*******************************************************************************
Target pole/equ : undefined
Target radii    : undefined                                                    
Center geodetic : 289.2634, -30.2406227, 2.71233  {E-lon(deg),Lat(deg),Alt(km)}
Center cylindric: 289.2634,5517.21435,-3194.81213 {E-lon(deg),Dxy(km),Dz(km)}
Center pole/equ : ITRF93                          {East-longitude positive}
Center radii    : 6378.137, 6378.137, 6356.752 km {Equator_a, b, pole_c}       
Target primary  : Sun
Vis. interferer : MOON (R_eq= 1737.400) km        {source: DE441}
Rel. light bend : Sun                             {source: DE441}
Rel. lght bnd GM: 1.3271E+11 km^3/s^2                                          
Small-body perts: Yes                             {source: SB441-N16}
Atmos refraction: NO (AIRLESS)
RA format       : HMS
Time format     : CAL 
Calendar mode   : Mixed Julian/Gregorian
RTS-only print  : NO       
EOP file        : eop.240715.p241008                                           
EOP coverage    : DATA-BASED 1962-JAN-20 TO 2024-JUL-15. PREDICTS-> 2024-OCT-07
Units conversion: 1 au= 149597870.700 km, c= 299792.458 km/s, 1 day= 86400.0 s 
Table cut-offs 1: Elevation (-90.0deg=NO ),Airmass (>38.000=NO), Daylight (YES)
Table cut-offs 2: Solar elongation (  0.0,180.0=NO ),Local Hour Angle( 0.0=NO )
Table cut-offs 3: RA/DEC angular rate (     0.0=NO )                           
*******************************************************************************
Initial IAU76/J2000 heliocentric ecliptic osculating elements (au, days, deg.):
  EPOCH=  2458458.5 ! 2018-Dec-06.00 (TDB)         Residual RMS= .12928        
   EC= .06869100257422787  QR= .9715505345748198   TP= 2458416.866413563       
   OM= 248.5061090469913   W=  141.3742304527303   IN= 1.905403987972275       
  Equivalent ICRF heliocentric cartesian coordinates (au, au/d):
   X= 2.787163119783287E-01  Y= 8.719775267121872E-01  Z= 3.748421051204766E-01
  VX=-1.676682657337402E-02 VY= 5.516972965834891E-03 VZ= 1.749720915605096E-03
Asteroid physical parameters (km, seconds, rotational period in hours):        
   GM= n.a.                RAD= n.a.               ROTPER= n.a.                
   H= 30.3                 G= .150                 B-V= n.a.                   
                           ALBEDO= n.a.            STYP= n.a.                  
*******************************************************************************
 Date__(UT)__HR:MN     R.A._________(ICRF)_________DEC
******************************************************
$$SOE
 2018-Dec-05 01:45     06 29 56.702034 -12 15 07.94620
 2018-Dec-05 01:46     06 29 56.095621 -12 15 07.16436
 2018-Dec-05 01:47     06 29 55.487090 -12 15 06.37980
 2018-Dec-05 01:48     06 29 54.876445 -12 15 05.59250
 2018-Dec-05 01:49     06 29 54.263693 -12 15 04.80242
 2018-Dec-05 01:50     06 29 53.648838 -12 15 04.00953
 2018-Dec-05 01:51     06 29 53.031886 -12 15 03.21381
 2018-Dec-05 01:52     06 29 52.412842 -12 15 02.41521
 2018-Dec-05 01:53     06 29 51.791712 -12 15 01.61371
 2018-Dec-05 01:54     06 29 51.168501 -12 15 00.80928
 2018-Dec-05 01:55     06 29 50.543215 -12 15 00.00189
 2018-Dec-05 01:56     06 29 49.915859 -12 14 59.19151
 2018-Dec-05 01:57     06 29 49.286438 -12 14 58.37811
 2018-Dec-05 01:58     06 29 48.654960 -12 14 57.56165
 2018-Dec-05 01:59     06 29 48.021428 -12 14 56.74211
 2018-Dec-05 02:00     06 29 47.385850 -12 14 55.91946
 2018-Dec-05 02:01     06 29 46.748230 -12 14 55.09366
 2018-Dec-05 02:02     06 29 46.108575 -12 14 54.26470
 2018-Dec-05 02:03     06 29 45.466890 -12 14 53.43253
 2018-Dec-05 02:04     06 29 44.823182 -12 14 52.59712
 2018-Dec-05 02:05     06 29 44.177456 -12 14 51.75846
 2018-Dec-05 02:06     06 29 43.529718 -12 14 50.91651
 2018-Dec-05 02:07     06 29 42.879975 -12 14 50.07123
 2018-Dec-05 02:08     06 29 42.228231 -12 14 49.22261
 2018-Dec-05 02:09     06 29 41.574495 -12 14 48.37060
 2018-Dec-05 02:10     06 29 40.918771 -12 14 47.51519
 2018-Dec-05 02:11     06 29 40.261066 -12 14 46.65634
 2018-Dec-05 02:12     06 29 39.601386 -12 14 45.79402
 2018-Dec-05 02:13     06 29 38.939737 -12 14 44.92821
 2018-Dec-05 02:14     06 29 38.276127 -12 14 44.05888
 2018-Dec-05 02:15     06 29 37.610560 -12 14 43.18599
 2018-Dec-05 02:16     06 29 36.943043 -12 14 42.30952
 2018-Dec-05 02:17     06 29 36.273584 -12 14 41.42944
 2018-Dec-05 02:18     06 29 35.602188 -12 14 40.54572
 2018-Dec-05 02:19     06 29 34.928862 -12 14 39.65833
 2018-Dec-05 02:20     06 29 34.253612 -12 14 38.76725
 2018-Dec-05 02:21     06 29 33.576445 -12 14 37.87244
 2018-Dec-05 02:22     06 29 32.897368 -12 14 36.97389
 2018-Dec-05 02:23     06 29 32.216388 -12 14 36.07155
 2018-Dec-05 02:24     06 29 31.533510 -12 14 35.16541
 2018-Dec-05 02:25     06 29 30.848742 -12 14 34.25543
 2018-Dec-05 02:26     06 29 30.162091 -12 14 33.34159
 2018-Dec-05 02:27     06 29 29.473563 -12 14 32.42386
 2018-Dec-05 02:28     06 29 28.783166 -12 14 31.50222
 2018-Dec-05 02:29     06 29 28.090906 -12 14 30.57662
 2018-Dec-05 02:30     06 29 27.396790 -12 14 29.64706
 2018-Dec-05 02:31     06 29 26.700826 -12 14 28.71350
 2018-Dec-05 02:32     06 29 26.003019 -12 14 27.77591
 2018-Dec-05 02:33     06 29 25.303378 -12 14 26.83426
 2018-Dec-05 02:34     06 29 24.601909 -12 14 25.88854
 2018-Dec-05 02:35     06 29 23.898620 -12 14 24.93871
 2018-Dec-05 02:36     06 29 23.193517 -12 14 23.98475
 2018-Dec-05 02:37     06 29 22.486608 -12 14 23.02662
 2018-Dec-05 02:38     06 29 21.777900 -12 14 22.06431
 2018-Dec-05 02:39     06 29 21.067401 -12 14 21.09779
 2018-Dec-05 02:40     06 29 20.355118 -12 14 20.12703
 2018-Dec-05 02:41     06 29 19.641057 -12 14 19.15200
 2018-Dec-05 02:42     06 29 18.925227 -12 14 18.17268
 2018-Dec-05 02:43     06 29 18.207636 -12 14 17.18905
 2018-Dec-05 02:44     06 29 17.488289 -12 14 16.20107
 2018-Dec-05 02:45     06 29 16.767195 -12 14 15.20873
 2018-Dec-05 02:46     06 29 16.044362 -12 14 14.21199
 2018-Dec-05 02:47     06 29 15.319797 -12 14 13.21083
 2018-Dec-05 02:48     06 29 14.593508 -12 14 12.20523
 2018-Dec-05 02:49     06 29 13.865501 -12 14 11.19515
 2018-Dec-05 02:50     06 29 13.135786 -12 14 10.18059
 2018-Dec-05 02:51     06 29 12.404370 -12 14 09.16150
 2018-Dec-05 02:52     06 29 11.671259 -12 14 08.13787
 2018-Dec-05 02:53     06 29 10.936464 -12 14 07.10966
 2018-Dec-05 02:54     06 29 10.199990 -12 14 06.07687
 2018-Dec-05 02:55     06 29 09.461846 -12 14 05.03945
 2018-Dec-05 02:56     06 29 08.722040 -12 14 03.99740
 2018-Dec-05 02:57     06 29 07.980579 -12 14 02.95067
 2018-Dec-05 02:58     06 29 07.237473 -12 14 01.89925
 2018-Dec-05 02:59     06 29 06.492728 -12 14 00.84312
 2018-Dec-05 03:00     06 29 05.746352 -12 13 59.78225
 2018-Dec-05 03:01     06 29 04.998355 -12 13 58.71662
 2018-Dec-05 03:02     06 29 04.248743 -12 13 57.64619
 2018-Dec-05 03:03     06 29 03.497525 -12 13 56.57096
 2018-Dec-05 03:04     06 29 02.744710 -12 13 55.49089
 2018-Dec-05 03:05     06 29 01.990304 -12 13 54.40597
 2018-Dec-05 03:06     06 29 01.234318 -12 13 53.31616
 2018-Dec-05 03:07     06 29 00.476758 -12 13 52.22145
 2018-Dec-05 03:08     06 28 59.717633 -12 13 51.12182
 2018-Dec-05 03:09     06 28 58.956952 -12 13 50.01723
 2018-Dec-05 03:10     06 28 58.194722 -12 13 48.90768
 2018-Dec-05 03:11     06 28 57.430953 -12 13 47.79312
 2018-Dec-05 03:12     06 28 56.665652 -12 13 46.67355
 2018-Dec-05 03:13     06 28 55.898829 -12 13 45.54894
 2018-Dec-05 03:14     06 28 55.130490 -12 13 44.41927
 2018-Dec-05 03:15     06 28 54.360646 -12 13 43.28451
 2018-Dec-05 03:16     06 28 53.589304 -12 13 42.14465
 2018-Dec-05 03:17     06 28 52.816474 -12 13 40.99966
 2018-Dec-05 03:18     06 28 52.042163 -12 13 39.84952
 2018-Dec-05 03:19     06 28 51.266381 -12 13 38.69421
 2018-Dec-05 03:20     06 28 50.489135 -12 13 37.53371
 2018-Dec-05 03:21     06 28 49.710436 -12 13 36.36799
 2018-Dec-05 03:22     06 28 48.930291 -12 13 35.19703
 2018-Dec-05 03:23     06 28 48.148709 -12 13 34.02082
 2018-Dec-05 03:24     06 28 47.365699 -12 13 32.83933
 2018-Dec-05 03:25     06 28 46.581270 -12 13 31.65255
 2018-Dec-05 03:26     06 28 45.795430 -12 13 30.46044
 2018-Dec-05 03:27     06 28 45.008189 -12 13 29.26300
 2018-Dec-05 03:28     06 28 44.219555 -12 13 28.06019
 2018-Dec-05 03:29     06 28 43.429538 -12 13 26.85200
 2018-Dec-05 03:30     06 28 42.638146 -12 13 25.63842
 2018-Dec-05 03:31     06 28 41.845388 -12 13 24.41941
 2018-Dec-05 03:32     06 28 41.051274 -12 13 23.19496
 2018-Dec-05 03:33     06 28 40.255812 -12 13 21.96506
 2018-Dec-05 03:34     06 28 39.459011 -12 13 20.72967
 2018-Dec-05 03:35     06 28 38.660880 -12 13 19.48878
 2018-Dec-05 03:36     06 28 37.861430 -12 13 18.24237
 2018-Dec-05 03:37     06 28 37.060668 -12 13 16.99043
 2018-Dec-05 03:38     06 28 36.258604 -12 13 15.73293
 2018-Dec-05 03:39     06 28 35.455246 -12 13 14.46985
 2018-Dec-05 03:40     06 28 34.650606 -12 13 13.20117
 2018-Dec-05 03:41     06 28 33.844691 -12 13 11.92689
 2018-Dec-05 03:42     06 28 33.037510 -12 13 10.64697
 2018-Dec-05 03:43     06 28 32.229074 -12 13 09.36140
 2018-Dec-05 03:44     06 28 31.419392 -12 13 08.07016
 2018-Dec-05 03:45     06 28 30.608472 -12 13 06.77323
 2018-Dec-05 03:46     06 28 29.796325 -12 13 05.47060
 2018-Dec-05 03:47     06 28 28.982959 -12 13 04.16224
